STARLINK-1363
1 45568U 20025AP  26092.91668981  .00318694  00000+0  13904-2 0  9993
2 45568  53.0381 276.1658 0003509 156.0174 145.9861 15.83332630  5874
